ONEWEB-0125             
1 47271U 20100P   25278.38910088 -.00000042  00000+0 -15329-3 0  9995
2 47271  87.8944  41.2635 0001663  89.5540 270.5779 13.12444407231217
ONEWEB-0126             
1 47272U 20100Q   25278.41033709  .00000386  00000+0  10371-2 0  9996
2 47272  87.8955  41.2823 0001756  99.2185 260.9142 13.12443153231286
ONEWEB-0127             
1 47273U 20100R   25279.06225887 -.00000457  00000+0 -13068-2 0  9996
2 47273  87.8948  41.1641 0001790 103.3437 256.7891 13.12442463231390
ONEWEB-0128             
1 47274U 20100S   25279.08497131  .00000090  00000+0  21560-3 0  9990
2 47274  87.8938  41.1818 0001656 108.0235 252.1074 13.12443455231413
ONEWEB-0129             
1 47275U 20100T   25279.06388333 -.00000381  00000+0 -10958-2 0  9995
2 47275  87.8949  41.1325 0002821 110.5962 249.5469 13.12443207231344
ONEWEB-0130             
1 47276U 20100U   25279.09146424  .00000327  00000+0  87484-3 0  9999
2 47276  87.8944  41.1234 0001693 103.8275 256.3042 13.12442614231318
ONEWEB-0131             
1 47277U 20100V   25279.08822051  .00000200  00000+0  52193-3 0  9995
2 47277  87.8946  41.1539 0001668 101.7159 258.4157 13.12442890231359
ONEWEB-0132             
1 47278U 20100W   25279.04118644  .00000006  00000+0 -18735-4 0  9998
2 47278  87.8950  41.1653 0001718 100.5150 259.6172 13.12441161231244
ONEWEB-0133             
1 47279U 20100X   25279.05725480 -.00000408  00000+0 -11698-2 0  9998
2 47279  87.8937  41.1289 0001596 103.5887 256.5419 13.12441251231407
ONEWEB-0134             
1 47280U 20100Y   25279.10281328  .00001063  00000+0  29198-2 0  9994
2 47280  87.8952  41.1097 0001554 110.7952 249.3343 13.12446772231386
ONEWEB-0135             
1 47281U 20100Z   25279.07362009 -.00000192  00000+0 -57019-3 0  9995
2 47281  87.8946  41.1558 0001604 115.4040 244.7255 13.12443232231400
ONEWEB-0136             
1 47282U 20100AA  25279.09309535  .00000313  00000+0  83577-3 0  9994
2 47282  87.8947  41.1205 0001858 113.5826 246.5498 13.12443360231336
ONEWEB-0137             
1 47283U 20100AB  25278.36477348 -.00000380  00000+0 -10924-2 0  9993
2 47283  87.8944  41.2708 0001821  95.7472 264.3864 13.12442536231149
ONEWEB-0138             
1 47284U 20100AC  25279.10605748  .00000449  00000+0  12135-2 0  9994
2 47284  87.8944  41.1334 0001767 105.9314 254.2010 13.12440874231326
ONEWEB-0139             
1 47285U 20100AD  25278.38276375 -.00000271  00000+0 -78972-3 0  9991
2 47285  87.8940  41.2675 0001682 100.4906 259.6412 13.12444844231309
ONEWEB-0140             
1 47286U 20100AE  25279.09957833  .00000358  00000+0  95967-3 0  9993
2 47286  87.8946  41.1103 0001779 103.5641 256.5686 13.12441434231365
ONEWEB-0141             
1 47287U 20100AF  25278.38247558 -.00000284  00000+0 -82383-3 0  9999
2 47287  87.8939  41.2666 0001979  93.6693 266.4662 13.12442201231256
