[{"OBJECT_NAME":"ONEWEB-0125","OBJECT_ID":"2020-100P","EPOCH":"2025-10-05T09:20:18.316032","MEAN_MOTION":13.12444407,"ECCENTRICITY":0.0001663,"INCLINATION":87.8944,"RA_OF_ASC_NODE":41.2635,"ARG_OF_PERICENTER":89.554,"MEAN_ANOMALY":270.5779,"EPHEMERIS_TYPE":0,"CLASSIFICATION_TYPE":"U","NORAD_CAT_ID":47271,"ELEMENT_SET_NO":999,"REV_AT_EPOCH":23121,"BSTAR":-0.00015329,"MEAN_MOTION_DOT":-4.2e-7,"MEAN_MOTION_DDOT":0},{"OBJECT_NAME":"ONEWEB-0126","OBJECT_ID":"2020-100Q","EPOCH":"2025-10-05T09:50:53.124576","MEAN_MOTION":13.12443153,"ECCENTRICITY":0.0001756,"INCLINATION":87.8955,"RA_OF_ASC_NODE":41.2823,"ARG_OF_PERICENTER":99.2185,"MEAN_ANOMALY":260.9142,"EPHEMERIS_TYPE":0,"CLASSIFICATION_TYPE":"U","NORAD_CAT_ID":47272,"ELEMENT_SET_NO":999,"REV_AT_EPOCH":23128,"BSTAR":0.0010371,"MEAN_MOTION_DOT":3.86e-6,"MEAN_MOTION_DDOT":0},{"OBJECT_NAME":"ONEWEB-0127","OBJECT_ID":"2020-100R","EPOCH":"2025-10-06T01:29:39.166368","MEAN_MOTION":13.12442463,"ECCENTRICITY":0.000179,"INCLINATION":87.8948,"RA_OF_ASC_NODE":41.1641,"ARG_OF_PERICENTER":103.3437,"MEAN_ANOMALY":256.7891,"EPHEMERIS_TYPE":0,"CLASSIFICATION_TYPE":"U","NORAD_CAT_ID":47273,"ELEMENT_SET_NO":999,"REV_AT_EPOCH":23139,"BSTAR":-0.0013068,"MEAN_MOTION_DOT":-4.57e-6,"MEAN_MOTION_DDOT":0},{"OBJECT_NAME":"ONEWEB-0128","OBJECT_ID":"2020-100S","EPOCH":"2025-10-06T02:02:21.521184","MEAN_MOTION":13.12443455,"ECCENTRICITY":0.0001656,"INCLINATION":87.8938,"RA_OF_ASC_NODE":41.1818,"ARG_OF_PERICENTER":108.0235,"MEAN_ANOMALY":252.1074,"EPHEMERIS_TYPE":0,"CLASSIFICATION_TYPE":"U","NORAD_CAT_ID":47274,"ELEMENT_SET_NO":999,"REV_AT_EPOCH":23141,"BSTAR":0.0002156,"MEAN_MOTION_DOT":9.0e-7,"MEAN_MOTION_DDOT":0},{"OBJECT_NAME":"ONEWEB-0129","OBJECT_ID":"2020-100T","EPOCH":"2025-10-06T01:31:59.519712","MEAN_MOTION":13.12443207,"ECCENTRICITY":0.0002821,"INCLINATION":87.8949,"RA_OF_ASC_NODE":41.1325,"ARG_OF_PERICENTER":110.5962,"MEAN_ANOMALY":249.5469,"EPHEMERIS_TYPE":0,"CLASSIFICATION_TYPE":"U","NORAD_CAT_ID":47275,"ELEMENT_SET_NO":999,"REV_AT_EPOCH":23134,"BSTAR":-0.0010958,"MEAN_MOTION_DOT":-3.81e-6,"MEAN_MOTION_DDOT":0},{"OBJECT_NAME":"ONEWEB-0130","OBJECT_ID":"2020-100U","EPOCH":"2025-10-06T02:11:42.510336","MEAN_MOTION":13.12442614,"ECCENTRICITY":0.0001693,"INCLINATION":87.8944,"RA_OF_ASC_NODE":41.1234,"ARG_OF_PERICENTER":103.8275,"MEAN_ANOMALY":256.3042,"EPHEMERIS_TYPE":0,"CLASSIFICATION_TYPE":"U","NORAD_CAT_ID":47276,"ELEMENT_SET_NO":999,"REV_AT_EPOCH":23131,"BSTAR":0.00087484,"MEAN_MOTION_DOT":3.27e-6,"MEAN_MOTION_DDOT":0},{"OBJECT_NAME":"ONEWEB-0131","OBJECT_ID":"2020-100V","EPOCH":"2025-10-06T02:07:02.252064","MEAN_MOTION":13.1244289,"ECCENTRICITY":0.0001668,"INCLINATION":87.8946,"RA_OF_ASC_NODE":41.1539,"ARG_OF_PERICENTER":101.7159,"MEAN_ANOMALY":258.4157,"EPHEMERIS_TYPE":0,"CLASSIFICATION_TYPE":"U","NORAD_CAT_ID":47277,"ELEMENT_SET_NO":999,"REV_AT_EPOCH":23135,"BSTAR":0.00052193,"MEAN_MOTION_DOT":2.0e-6,"MEAN_MOTION_DDOT":0},{"OBJECT_NAME":"ONEWEB-0132","OBJECT_ID":"2020-100W","EPOCH":"2025-10-06T00:59:18.508416","MEAN_MOTION":13.12441161,"ECCENTRICITY":0.0001718,"INCLINATION":87.895,"RA_OF_ASC_NODE":41.1653,"ARG_OF_PERICENTER":100.515,"MEAN_ANOMALY":259.6172,"EPHEMERIS_TYPE":0,"CLASSIFICATION_TYPE":"U","NORAD_CAT_ID":47278,"ELEMENT_SET_NO":999,"REV_AT_EPOCH":23124,"BSTAR":-1.8735e-5,"MEAN_MOTION_DOT":6.0e-8,"MEAN_MOTION_DDOT":0},{"OBJECT_NAME":"ONEWEB-0133","OBJECT_ID":"2020-100X","EPOCH":"2025-10-06T01:22:26.814720","MEAN_MOTION":13.12441251,"ECCENTRICITY":0.0001596,"INCLINATION":87.8937,"RA_OF_ASC_NODE":41.1289,"ARG_OF_PERICENTER":103.5887,"MEAN_ANOMALY":256.5419,"EPHEMERIS_TYPE":0,"CLASSIFICATION_TYPE":"U","NORAD_CAT_ID":47279,"ELEMENT_SET_NO":999,"REV_AT_EPOCH":23140,"BSTAR":-0.0011698,"MEAN_MOTION_DOT":-4.08e-6,"MEAN_MOTION_DDOT":0},{"OBJECT_NAME":"ONEWEB-0134","OBJECT_ID":"2020-100Y","EPOCH":"2025-10-06T02:28:03.067392","MEAN_MOTION":13.12446772,"ECCENTRICITY":0.0001554,"INCLINATION":87.8952,"RA_OF_ASC_NODE":41.1097,"ARG_OF_PERICENTER":110.7952,"MEAN_ANOMALY":249.3343,"EPHEMERIS_TYPE":0,"CLASSIFICATION_TYPE":"U","NORAD_CAT_ID":47280,"ELEMENT_SET_NO":999,"REV_AT_EPOCH":23138,"BSTAR":0.0029198,"MEAN_MOTION_DOT":1.063e-5,"MEAN_MOTION_DDOT":0},{"OBJECT_NAME":"ONEWEB-0135","OBJECT_ID":"2020-100Z","EPOCH":"2025-10-06T01:46:00.775776","MEAN_MOTION":13.12443232,"ECCENTRICITY":0.0001604,"INCLINATION":87.8946,"RA_OF_ASC_NODE":41.1558,"ARG_OF_PERICENTER":115.404,"MEAN_ANOMALY":244.7255,"EPHEMERIS_TYPE":0,"CLASSIFICATION_TYPE":"U","NORAD_CAT_ID":47281,"ELEMENT_SET_NO":999,"REV_AT_EPOCH":23140,"BSTAR":-0.00057019,"MEAN_MOTION_DOT":-1.92e-6,"MEAN_MOTION_DDOT":0},{"OBJECT_NAME":"ONEWEB-0136","OBJECT_ID":"2020-100AA","EPOCH":"2025-10-06T02:14:03.438240","MEAN_MOTION":13.1244336,"ECCENTRICITY":0.0001858,"INCLINATION":87.8947,"RA_OF_ASC_NODE":41.1205,"ARG_OF_PERICENTER":113.5826,"MEAN_ANOMALY":246.5498,"EPHEMERIS_TYPE":0,"CLASSIFICATION_TYPE":"U","NORAD_CAT_ID":47282,"ELEMENT_SET_NO":999,"REV_AT_EPOCH":23133,"BSTAR":0.00083577,"MEAN_MOTION_DOT":3.13e-6,"MEAN_MOTION_DDOT":0},{"OBJECT_NAME":"ONEWEB-0137","OBJECT_ID":"2020-100AB","EPOCH":"2025-10-05T08:45:16.428672","MEAN_MOTION":13.12442536,"ECCENTRICITY":0.0001821,"INCLINATION":87.8944,"RA_OF_ASC_NODE":41.2708,"ARG_OF_PERICENTER":95.7472,"MEAN_ANOMALY":264.3864,"EPHEMERIS_TYPE":0,"CLASSIFICATION_TYPE":"U","NORAD_CAT_ID":47283,"ELEMENT_SET_NO":999,"REV_AT_EPOCH":23114,"BSTAR":-0.0010924,"MEAN_MOTION_DOT":-3.8e-6,"MEAN_MOTION_DDOT":0},{"OBJECT_NAME":"ONEWEB-0138","OBJECT_ID":"2020-100AC","EPOCH":"2025-10-06T02:32:43.366272","MEAN_MOTION":13.12440874,"ECCENTRICITY":0.0001767,"INCLINATION":87.8944,"RA_OF_ASC_NODE":41.1334,"ARG_OF_PERICENTER":105.9314,"MEAN_ANOMALY":254.201,"EPHEMERIS_TYPE":0,"CLASSIFICATION_TYPE":"U","NORAD_CAT_ID":47284,"ELEMENT_SET_NO":999,"REV_AT_EPOCH":23132,"BSTAR":0.0012135,"MEAN_MOTION_DOT":4.49e-6,"MEAN_MOTION_DDOT":0},{"OBJECT_NAME":"ONEWEB-0139","OBJECT_ID":"2020-100AD","EPOCH":"2025-10-05T09:11:10.788000","MEAN_MOTION":13.12444844,"ECCENTRICITY":0.0001682,"INCLINATION":87.894,"RA_OF_ASC_NODE":41.2675,"ARG_OF_PERICENTER":100.4906,"MEAN_ANOMALY":259.6412,"EPHEMERIS_TYPE":0,"CLASSIFICATION_TYPE":"U","NORAD_CAT_ID":47285,"ELEMENT_SET_NO":999,"REV_AT_EPOCH":23130,"BSTAR":-0.00078972,"MEAN_MOTION_DOT":-2.71e-6,"MEAN_MOTION_DDOT":0},{"OBJECT_NAME":"ONEWEB-0140","OBJECT_ID":"2020-100AE","EPOCH":"2025-10-06T02:23:23.567712","MEAN_MOTION":13.12441434,"ECCENTRICITY":0.0001779,"INCLINATION":87.8946,"RA_OF_ASC_NODE":41.1103,"ARG_OF_PERICENTER":103.5641,"MEAN_ANOMALY":256.5686,"EPHEMERIS_TYPE":0,"CLASSIFICATION_TYPE":"U","NORAD_CAT_ID":47286,"ELEMENT_SET_NO":999,"REV_AT_EPOCH":23136,"BSTAR":0.00095967,"MEAN_MOTION_DOT":3.58e-6,"MEAN_MOTION_DDOT":0},{"OBJECT_NAME":"ONEWEB-0141","OBJECT_ID":"2020-100AF","EPOCH":"2025-10-05T09:10:45.890112","MEAN_MOTION":13.12442201,"ECCENTRICITY":0.0001979,"INCLINATION":87.8939,"RA_OF_ASC_NODE":41.2666,"ARG_OF_PERICENTER":93.6693,"MEAN_ANOMALY":266.4662,"EPHEMERIS_TYPE":0,"CLASSIFICATION_TYPE":"U","NORAD_CAT_ID":47287,"ELEMENT_SET_NO":999,"REV_AT_EPOCH":23125,"BSTAR":-0.00082383,"MEAN_MOTION_DOT":-2.84e-6,"MEAN_MOTION_DDOT":0}]
